0 CZ-4C R/B
1 36123U 09072C   13281.82946112  .00000000  00000-0  76924-4 0  6709
2 36123 100.4135 048.4876 0156545 272.7523 202.6935 13.46014296187461
0 CZ-4C R/B
1 36123U 09072C   13283.83708807 -.00000027  00000-0  35209-4 0  6711
2 36123 100.4138 050.5710 0156560 267.8992 210.9802 13.46014637187731
0 CZ-4C R/B
1 36123U 09072C   13285.85160769 -.00000046  00000-0  54035-5 0  6725
2 36123 100.4143 052.6616 0156584 263.0318 252.6659 13.46014672188004
0 CZ-4C R/B
1 36123U 09072C   13288.13535644 -.00000028  00000-0  33445-4 0  6739
2 36123 100.4149 055.0318 0156634 257.5259 158.9362 13.46014669188313
0 CZ-4C R/B
1 36123U 09072C   13290.43629948 -.00000003  00000-0  72005-4 0  6745
2 36123 100.4152 057.4200 0156690 251.9839 148.5191 13.46014763188621
0 CZ-4C R/B
1 36123U 09072C   13292.44319042  .00000013  00000-0  96460-4 0  6751
2 36123 100.4153 059.5031 0156731 247.1493 153.2280 13.46014943188897
0 CZ-4C R/B
1 36123U 09072C   13294.45008777  .00000011  00000-0  93244-4 0  6760
2 36123 100.4152 061.5861 0156755 242.3018 157.9815 13.46015177189162
